NORAD_CAT_ID,OBJECT_NAME,OBJECT_TYPE,EPOCH,MEAN_MOTION,ECCENTRICITY,INCLINATION,RA_OF_ASC_NODE,ARG_OF_PERICENTER,MEAN_ANOMALY,BSTAR,MEAN_MOTION_DOT,MEAN_MOTION_DDOT,TLE_LINE0,TLE_LINE1,TLE_LINE2,SEMIMAJOR_AXIS,PERIOD,APOGEE,PERIGEE,DECAYED
55420.0,STARLINK-5604,PAYLOAD,2023-10-24 10:55:47,14.98321436,0.00029,69.9997,71.1349,266.854,93.2287,9.7084e-05,1.065e-05,0.0,0 STARLINK-5604,1 55420U 23014AF  23297.45541087  .00001065  00000-0  97084-4 0  9997,2 55420  69.9997  71.1349 0002900 266.8540  93.2287 14.98321436 41708,6950.219,96.108,574.1,570.069,0.0
55420.0,STARLINK-5604,PAYLOAD,2023-10-24 12:31:55,14.98321659,0.0002902,69.9998,70.9666,266.8256,93.2571,9.7033e-05,1.065e-05,0.0,0 STARLINK-5604,1 55420U 23014AF  23297.52217101  .00001065  00000-0  97033-4 0  9996,2 55420  69.9998  70.9666 0002902 266.8256  93.2571 14.98321659 42652,6950.219,96.108,574.101,570.067,0.0
55420.0,STARLINK-5604,PAYLOAD,2023-10-25 14:10:04,14.98337534,0.0002809,70.0008,68.2749,268.7424,91.3413,-3.8562e-05,-5.53e-06,0.0,0 STARLINK-5604,1 55420U 23014AF  23298.59032531 -.00000553  00000-0 -38562-4 0  9991,2 55420  70.0008  68.2749 0002809 268.7424  91.3413 14.98337534 41879,6950.17,96.107,573.987,570.082,0.0
55420.0,STARLINK-5604,PAYLOAD,2023-10-26 10:59:49,14.98328237,0.000299,70.0009,66.0864,269.7038,90.3779,1.8353e-05,1.26e-06,0.0,0 STARLINK-5604,1 55420U 23014AF  23299.45820766  .00000126  00000-0  18353-4 0  9992,2 55420  70.0009  66.0864 0002990 269.7038  90.3779 14.98328237 42007,6950.198,96.107,574.141,569.985,0.0
55420.0,STARLINK-5604,PAYLOAD,2023-10-26 14:12:05,14.98314179,0.0002837,70.0007,65.7498,267.1384,92.9451,0.00024478,2.828e-05,0.0,0 STARLINK-5604,1 55420U 23014AF  23299.59173244  .00002828  00000-0  24478-3 0  9994,2 55420  70.0007  65.7498 0002837 267.1384  92.9451 14.98314179 42960,6950.242,96.108,574.079,570.135,0.0
55420.0,STARLINK-5604,PAYLOAD,2023-10-26 19:00:26,14.98428433,0.0002865,70.0004,65.2446,245.7454,114.3406,-0.0014984,-0.00017971,0.0,0 STARLINK-5604,1 55420U 23014AF  23299.79197694 -.00017971  00000-0 -14984-2 0  9998,2 55420  70.0004  65.2446 0002865 245.7454 114.3406 14.98428433 42054,6949.889,96.101,573.745,569.762,0.0
55420.0,STARLINK-5604,PAYLOAD,2023-10-27 01:25:01,14.98335495,0.0003098,70.0018,64.5707,270.7727,89.3077,1.1202e-05,4.1e-07,0.0,0 STARLINK-5604,1 55420U 23014AF  23300.05904156  .00000041  00000-0  11202-4 0  9999,2 55420  70.0018  64.5707 0003098 270.7727  89.3077 14.98335495 42095,6950.176,96.107,574.194,569.888,0.0
55420.0,STARLINK-5604,PAYLOAD,2023-10-27 14:14:05,14.98336814,0.0002663,70.0015,63.2251,267.0945,92.991,-7.8497e-06,-1.87e-06,0.0,0 STARLINK-5604,1 55420U 23014AF  23300.59312086 -.00000187  00000-0 -78497-5 0  9996,2 55420  70.0015  63.2251 0002663 267.0945  92.9910 14.98336814 43116,6950.172,96.107,573.888,570.186,0.0
55420.0,STARLINK-5604,PAYLOAD,2023-10-27 19:02:29,14.98338784,0.0002632,70.0016,62.7196,270.1405,89.9452,4.312e-05,4.22e-06,0.0,0 STARLINK-5604,1 55420U 23014AF  23300.79339724  .00000422  00000-0  43120-4 0  9990,2 55420  70.0016  62.7196 0002632 270.1405  89.9452 14.98338784 43149,6950.166,96.106,573.86,570.201,0.0
55420.0,STARLINK-5604,PAYLOAD,2023-10-28 12:40:00,14.98213278,0.0007127,70.0017,60.8691,267.3187,92.7157,-0.0014894,-0.00017774,0.0,0 STARLINK-5604,1 55420U 23014AF  23301.52778525 -.00017774  00000-0 -14894-2 0  9992,2 55420  70.0017  60.8691 0007127 267.3187  92.7157 14.98213278 43254,6950.554,96.114,577.373,567.465,0.0
55420.0,STARLINK-5604,PAYLOAD,2023-10-30 22:00:00,14.99143873,0.0003139,70.0032,54.8357,270.2243,20.2155,-0.0028906,-0.00035144,0.0,0 STARLINK-5604,1 55420U 23014AF  23303.91667824 -.00035144  00000-0 -28906-2 0  9996,2 55420  70.0032  54.8357 0003139 270.2243  20.2155 14.99143873 42671,6947.677,96.055,571.723,567.361,0.0
55420.0,STARLINK-5604,PAYLOAD,2023-10-31 09:31:11,14.99130589,0.0002733,70.0008,53.6239,262.916,97.1689,3.7018e-05,3.57e-06,0.0,0 STARLINK-5604,1 55420U 23014AF  23304.39666025  .00000357  00000-0  37018-4 0  9993,2 55420  70.0008  53.6239 0002733 262.9160  97.1689 14.99130589 42748,6947.718,96.056,571.482,567.684,0.0
55420.0,STARLINK-5604,PAYLOAD,2023-10-31 14:19:25,14.99140187,0.0002747,70.0011,53.1189,269.2512,90.8332,-4.9882e-06,-1.54e-06,0.0,0 STARLINK-5604,1 55420U 23014AF  23304.59682790 -.00000154  00000-0 -49882-5 0  9992,2 55420  70.0011  53.1189 0002747 269.2512  90.8332 14.99140187 43715,6947.689,96.055,571.462,567.645,0.0
55420.0,STARLINK-5604,PAYLOAD,2023-10-31 22:00:01,14.99149871,0.0003133,70.0032,52.3117,273.2219,12.6276,-0.0029675,-0.00036077,0.0,0 STARLINK-5604,1 55420U 23014AF  23304.91668981 -.00036077  00000-0 -29675-2 0  9992,2 55420  70.0032  52.3117 0003133 273.2219  12.6276 14.99149871  5928,6947.659,96.054,571.7,567.347,0.0
55420.0,STARLINK-5604,PAYLOAD,2023-11-01 14:00:01,14.99149096,0.0003162,70.0033,50.6291,274.6365,8.1076,-0.0014994,-0.00018321,0.0,0 STARLINK-5604,1 55420U 23014AF  23305.58335648 -.00018321  00000-0 -14994-2 0  9997,2 55420  70.0033  50.6291 0003162 274.6365   8.1076 14.99149096 42920,6947.661,96.054,571.723,567.329,0.0
55420.0,STARLINK-5604,PAYLOAD,2023-11-01 22:00:00,14.99154638,0.0003091,70.003,49.7876,274.4223,6.7167,-0.0030199,-0.00036714,0.0,0 STARLINK-5604,1 55420U 23014AF  23305.91667824 -.00036714  00000-0 -30199-2 0  9999,2 55420  70.0030  49.7876 0003091 274.4223   6.7167 14.99154638  5659,6947.644,96.054,571.656,567.361,0.0
55420.0,STARLINK-5604,PAYLOAD,2023-11-02 06:00:00,14.9913118,0.0003086,70.0032,48.9463,268.4814,11.1127,0.0044406,0.00054424,0.0,0 STARLINK-5604,1 55420U 23014AF  23306.25001157  .00054424  00000-0  44406-2 0  9990,2 55420  70.0032  48.9463 0003086 268.4814  11.1127 14.99131180 43023,6947.716,96.056,571.725,567.437,0.0
55420.0,STARLINK-5604,PAYLOAD,2023-11-02 14:00:01,14.99174104,0.0003113,70.0031,48.1048,273.1313,4.9319,-0.0044338,-0.00053756,0.0,0 STARLINK-5604,1 55420U 23014AF  23306.58334491 -.00053756  00000-0 -44338-2 0  9999,2 55420  70.0031  48.1048 0003113 273.1313   4.9319 14.99174104  5755,6947.584,96.053,571.612,567.286,0.0
55420.0,STARLINK-5604,PAYLOAD,2023-11-02 22:00:01,14.99148834,0.0003073,70.0028,47.2632,271.1693,5.4288,-0.0040226,-0.00048782,0.0,0 STARLINK-5604,1 55420U 23014AF  23306.91668981 -.00048782  00000-0 -40226-2 0  9995,2 55420  70.0028  47.2632 0003073 271.1693   5.4288 14.99148834 43129,6947.662,96.055,571.662,567.392,0.0
55420.0,STARLINK-5604,PAYLOAD,2023-11-02 23:58:24,14.99140422,0.0002583,70.0027,47.0554,272.2802,87.8061,4.3423e-05,4.36e-06,0.0,0 STARLINK-5604,1 55420U 23014AF  23306.99888975  .00000436  00000-0  43423-4 0  9996,2 55420  70.0027  47.0554 0002583 272.2802  87.8061 14.99140422 43137,6947.688,96.055,571.347,567.758,0.0
55420.0,STARLINK-5604,PAYLOAD,2023-11-03 14:23:08,14.99143674,0.000306,70.0017,45.5385,267.9948,92.0861,2.2443e-05,1.8e-06,0.0,0 STARLINK-5604,1 55420U 23014AF  23307.59940341  .00000180  00000-0  22443-4 0  9994,2 55420  70.0017  45.5385 0003060 267.9948  92.0861 14.99143674 44166,6947.678,96.055,571.669,567.417,0.0
55420.0,STARLINK-5604,PAYLOAD,2023-11-03 15:59:13,14.99143953,0.0003081,70.0017,45.3702,268.5036,91.577,3.2576e-05,3.03e-06,0.0,0 STARLINK-5604,1 55420U 23014AF  23307.66612677  .00000303  00000-0  32576-4 0  9995,2 55420  70.0017  45.3702 0003081 268.5036  91.5770 14.99143953 44179,6947.677,96.055,571.683,567.401,0.0
55420.0,STARLINK-5604,PAYLOAD,2023-11-03 23:59:38,14.99141244,0.0003085,70.0024,44.5282,282.2708,77.8106,-2.3374e-05,-3.79e-06,0.0,0 STARLINK-5604,1 55420U 23014AF  23307.99975033 -.00000379  00000-0 -23374-4 0  9990,2 55420  70.0024  44.5282 0003085 282.2708  77.8106 14.99141244 43286,6947.685,96.055,571.694,567.407,0.0
55420.0,STARLINK-5604,PAYLOAD,2023-11-04 14:24:22,14.99144413,0.000284,70.0019,43.0131,269.3238,90.7596,8.0307e-07,-8.4e-07,0.0,0 STARLINK-5604,1 55420U 23014AF  23308.60026286 -.00000084  00000-0  80307-6 0  9999,2 55420  70.0019  43.0131 0002840 269.3238  90.7596 14.99144413 44312,6947.676,96.055,571.514,567.567,0.0
55420.0,STARLINK-5604,PAYLOAD,2023-11-04 16:00:27,14.99145972,0.0002865,70.0019,42.8447,269.5294,90.5537,1.8769e-05,1.35e-06,0.0,0 STARLINK-5604,1 55420U 23014AF  23308.66698506  .00000135  00000-0  18769-4 0  9992,2 55420  70.0019  42.8447 0002865 269.5294  90.5537 14.99145972 44325,6947.671,96.055,571.526,567.545,0.0
55420.0,STARLINK-5604,PAYLOAD,2023-11-05 14:25:36,14.99150438,0.0002906,70.0014,40.4861,267.8247,92.258,0.00016175,1.878e-05,0.0,0 STARLINK-5604,1 55420U 23014AF  23309.60111166  .00001878  00000-0  16175-3 0  9992,2 55420  70.0014  40.4861 0002906 267.8247  92.2580 14.99150438 44464,6947.657,96.054,571.541,567.503,0.0
55420.0,STARLINK-5604,PAYLOAD,2023-11-05 16:01:40,14.99157346,0.0002992,70.0015,40.3178,269.0742,91.0075,0.00022279,2.623e-05,0.0,0 STARLINK-5604,1 55420U 23014AF  23309.66782895  .00002623  00000-0  22279-3 0  9992,2 55420  70.0015  40.3178 0002992 269.0742  91.0075 14.99157346 43532,6947.636,96.054,571.579,567.422,0.0
55420.0,STARLINK-5604,PAYLOAD,2023-11-06 00:02:06,14.9914623,0.0003021,70.0021,39.4755,262.5693,97.5123,1.3251e-05,6.8e-07,0.0,0 STARLINK-5604,1 55420U 23014AF  23310.00145861  .00000068  00000-0  13251-4 0  9990,2 55420  70.0021  39.4755 0003021 262.5693  97.5123 14.99146230 43586,6947.67,96.055,571.634,567.436,0.0
55420.0,STARLINK-5604,PAYLOAD,2023-11-06 14:26:49,14.99154601,0.0002808,70.0021,37.9614,262.234,97.8501,0.00015379,1.781e-05,0.0,0 STARLINK-5604,1 55420U 23014AF  23310.60196205  .00001781  00000-0  15379-3 0  9999,2 55420  70.0021  37.9614 0002808 262.2340  97.8501 14.99154601 44610,6947.644,96.054,571.46,567.558,0.0
55420.0,STARLINK-5604,PAYLOAD,2023-11-06 16:02:54,14.99156064,0.0002783,70.0022,37.7924,261.9634,98.121,0.00019496,2.284e-05,0.0,0 STARLINK-5604,1 55420U 23014AF  23310.66868336  .00002284  00000-0  19496-3 0  9999,2 55420  70.0022  37.7924 0002783 261.9634  98.1210 14.99156064 43689,6947.64,96.054,571.438,567.571,0.0
